ORBCOMM FM103           
1 40091U 14040F   25279.18174850  .00001240  00000+0  30169-3 0  9990
2 40091  47.0047 213.5558 0001265  43.3980 316.7005 14.58359777580302
ORBCOMM FM114           
1 41179U 15081A   25278.99469149  .00001122  00000+0  27620-3 0  9997
2 41179  47.0017 123.4276 0001765 146.7357 213.3640 14.58394478520649
ORBCOMM FM119           
1 41180U 15081B   25278.43966747  .00001285  00000+0  31128-3 0  9992
2 41180  47.0007  35.3914 0001682 218.5585 141.5180 14.58335016521813
ORBCOMM FM105           
1 41181U 15081C   25279.04041902  .00000578  00000+0  20774-3 0  9997
2 41181  47.0024  48.2987 0001182 112.1795 247.9211 14.45317683516785
ORBCOMM FM110           
1 41182U 15081D   25278.98659807  .00001142  00000+0  28041-3 0  9992
2 41182  46.9996 122.9977 0002383 340.1331  19.9461 14.58423302520514
ORBCOMM FM118           
1 41183U 15081E   25279.08773067  .00001064  00000+0  26388-3 0  9995
2 41183  47.0030 122.7836 0003076 299.2125  60.8453 14.58392757520631
ORBCOMM FM112           
1 41184U 15081F   25279.02462225  .00001403  00000+0  33565-3 0  9993
2 41184  46.9995  31.6775 0001406 169.8314 190.2600 14.58469716521843
ORBCOMM FM113           
1 41185U 15081G   25278.38516561  .00001529  00000+0  36269-3 0  9998
2 41185  47.0006  35.0426 0001345 184.9102 175.1770 14.58454973521732
